[
  {
    "OBJECT_NAME": "STARLINK-33909",
    "OBJECT_ID": "25092A",
    "EPOCH": "2025-11-11T04:04:01.191072",
    "MEAN_MOTION": 15.27592091,
    "ECCENTRICITY": 0.0001169,
    "INCLINATION": 43.0023,
    "RA_OF_ASC_NODE": 122.3097,
    "ARG_OF_PERICENTER": 274.1108,
    "MEAN_ANOMALY": 85.961,
    "EPHEMERIS_TYPE": 0,
    "CLASSIFICATION_TYPE": "U",
    "NORAD_CAT_ID": 63804,
    "ELEMENT_SET_NO": 999,
    "REV_AT_EPOCH": 3048,
    "BSTAR": 0.0010625,
    "MEAN_MOTION_DOT": 0.00029101,
    "MEAN_MOTION_DDOT": 0.0,
    "TLE_LINE1": "1 63804U 25092A   25315.16945823  .00029101  00000+0  10625-2 0  9991",
    "TLE_LINE2": "2 63804  43.0023 122.3097 0001169 274.1108  85.9610 15.27592091 30484",
    "COMMENT": "Grouped by shell and plane from TLE"
  },
  {
    "OBJECT_NAME": "STARLINK-34029",
    "OBJECT_ID": "25092B",
    "EPOCH": "2025-11-11T03:56:37.372416",
    "MEAN_MOTION": 15.27613743,
    "ECCENTRICITY": 6.95e-05,
    "INCLINATION": 42.9965,
    "RA_OF_ASC_NODE": 122.2675,
    "ARG_OF_PERICENTER": 291.4558,
    "MEAN_ANOMALY": 68.622,
    "EPHEMERIS_TYPE": 0,
    "CLASSIFICATION_TYPE": "U",
    "NORAD_CAT_ID": 63805,
    "ELEMENT_SET_NO": 999,
    "REV_AT_EPOCH": 3048,
    "BSTAR": 0.00047917,
    "MEAN_MOTION_DOT": 0.00012961,
    "MEAN_MOTION_DDOT": 0.0,
    "TLE_LINE1": "1 63805U 25092B   25315.16432144  .00012961  00000+0  47917-3 0  9990",
    "TLE_LINE2": "2 63805  42.9965 122.2675 0000695 291.4558  68.6220 15.27613743 30486",
    "COMMENT": "Grouped by shell and plane from TLE"
  },
  {
    "OBJECT_NAME": "STARLINK-34102",
    "OBJECT_ID": "25092C",
    "EPOCH": "2025-11-11T03:54:46.365696",
    "MEAN_MOTION": 15.27594902,
    "ECCENTRICITY": 9.76e-05,
    "INCLINATION": 42.9996,
    "RA_OF_ASC_NODE": 122.2595,
    "ARG_OF_PERICENTER": 274.1108,
    "MEAN_ANOMALY": 85.9632,
    "EPHEMERIS_TYPE": 0,
    "CLASSIFICATION_TYPE": "U",
    "NORAD_CAT_ID": 63806,
    "ELEMENT_SET_NO": 999,
    "REV_AT_EPOCH": 3053,
    "BSTAR": 0.0014209,
    "MEAN_MOTION_DOT": 0.00039064,
    "MEAN_MOTION_DDOT": 0.0,
    "TLE_LINE1": "1 63806U 25092C   25315.16303664  .00039064  00000+0  14209-2 0  9995",
    "TLE_LINE2": "2 63806  42.9996 122.2595 0000976 274.1108  85.9632 15.27594902 30533",
    "COMMENT": "Grouped by shell and plane from TLE"
  },
  {
    "OBJECT_NAME": "STARLINK-34109",
    "OBJECT_ID": "25092D",
    "EPOCH": "2025-11-11T04:27:52.398432",
    "MEAN_MOTION": 15.27603423,
    "ECCENTRICITY": 3.94e-05,
    "INCLINATION": 43.0018,
    "RA_OF_ASC_NODE": 121.5697,
    "ARG_OF_PERICENTER": 331.8947,
    "MEAN_ANOMALY": 28.1883,
    "EPHEMERIS_TYPE": 0,
    "CLASSIFICATION_TYPE": "U",
    "NORAD_CAT_ID": 63807,
    "ELEMENT_SET_NO": 999,
    "REV_AT_EPOCH": 3049,
    "BSTAR": 0.00092048,
    "MEAN_MOTION_DOT": 0.00025172,
    "MEAN_MOTION_DDOT": 0.0,
    "TLE_LINE1": "1 63807U 25092D   25315.18602313  .00025172  00000+0  92048-3 0  9994",
    "TLE_LINE2": "2 63807  43.0018 121.5697 0000394 331.8947  28.1883 15.27603423 30493",
    "COMMENT": "Grouped by shell and plane from TLE"
  },
  {
    "OBJECT_NAME": "STARLINK-34091",
    "OBJECT_ID": "25092E",
    "EPOCH": "2025-11-10T18:05:46.925376",
    "MEAN_MOTION": 15.27613967,
    "ECCENTRICITY": 0.0001443,
    "INCLINATION": 43.0003,
    "RA_OF_ASC_NODE": 124.3445,
    "ARG_OF_PERICENTER": 270.9943,
    "MEAN_ANOMALY": 89.0744,
    "EPHEMERIS_TYPE": 0,
    "CLASSIFICATION_TYPE": "U",
    "NORAD_CAT_ID": 63808,
    "ELEMENT_SET_NO": 999,
    "REV_AT_EPOCH": 3047,
    "BSTAR": 0.0012451,
    "MEAN_MOTION_DOT": 0.00034196,
    "MEAN_MOTION_DDOT": 0.0,
    "TLE_LINE1": "1 63808U 25092E   25314.75401534  .00034196  00000+0  12451-2 0  9994",
    "TLE_LINE2": "2 63808  43.0003 124.3445 0001443 270.9943  89.0744 15.27613967 30479",
    "COMMENT": "Grouped by shell and plane from TLE"
  },
  {
    "OBJECT_NAME": "STARLINK-34095",
    "OBJECT_ID": "25092F",
    "EPOCH": "2025-11-10T20:11:24.937440",
    "MEAN_MOTION": 15.27637343,
    "ECCENTRICITY": 0.0001955,
    "INCLINATION": 43.001,
    "RA_OF_ASC_NODE": 124.1461,
    "ARG_OF_PERICENTER": 285.3092,
    "MEAN_ANOMALY": 74.7544,
    "EPHEMERIS_TYPE": 0,
    "CLASSIFICATION_TYPE": "U",
    "NORAD_CAT_ID": 63809,
    "ELEMENT_SET_NO": 999,
    "REV_AT_EPOCH": 3043,
    "BSTAR": 0.0016370000000000002,
    "MEAN_MOTION_DOT": 0.0004514,
    "MEAN_MOTION_DDOT": 0.0,
    "TLE_LINE1": "1 63809U 25092F   25314.84126085  .00045140  00000+0  16370-2 0  9995",
    "TLE_LINE2": "2 63809  43.0010 124.1461 0001955 285.3092  74.7544 15.27637343 30436",
    "COMMENT": "Grouped by shell and plane from TLE"
  },
  {
    "OBJECT_NAME": "STARLINK-34127",
    "OBJECT_ID": "25092G",
    "EPOCH": "2025-11-10T20:48:11.595168",
    "MEAN_MOTION": 15.27606522,
    "ECCENTRICITY": 0.0002216,
    "INCLINATION": 43.0044,
    "RA_OF_ASC_NODE": 123.4738,
    "ARG_OF_PERICENTER": 289.2517,
    "MEAN_ANOMALY": 70.8094,
    "EPHEMERIS_TYPE": 0,
    "CLASSIFICATION_TYPE": "U",
    "NORAD_CAT_ID": 63810,
    "ELEMENT_SET_NO": 999,
    "REV_AT_EPOCH": 3044,
    "BSTAR": 0.0011446000000000002,
    "MEAN_MOTION_DOT": 0.00031395,
    "MEAN_MOTION_DDOT": 0.0,
    "TLE_LINE1": "1 63810U 25092G   25314.86680087  .00031395  00000+0  11446-2 0  9992",
    "TLE_LINE2": "2 63810  43.0044 123.4738 0002216 289.2517  70.8094 15.27606522 30443",
    "COMMENT": "Grouped by shell and plane from TLE"
  },
  {
    "OBJECT_NAME": "STARLINK-34110",
    "OBJECT_ID": "25092H",
    "EPOCH": "2025-11-11T00:00:02.999808",
    "MEAN_MOTION": 15.28168881,
    "ECCENTRICITY": 0.000188,
    "INCLINATION": 42.9999,
    "RA_OF_ASC_NODE": 123.023,
    "ARG_OF_PERICENTER": 280.2275,
    "MEAN_ANOMALY": 328.2363,
    "EPHEMERIS_TYPE": 0,
    "CLASSIFICATION_TYPE": "U",
    "NORAD_CAT_ID": 63811,
    "ELEMENT_SET_NO": 999,
    "REV_AT_EPOCH": 588,
    "BSTAR": 0.0018659000000000002,
    "MEAN_MOTION_DOT": 0.00052387,
    "MEAN_MOTION_DDOT": 0.0,
    "TLE_LINE1": "1 63811U 25092H   25315.00003472  .00052387  00000+0  18659-2 0  9994",
    "TLE_LINE2": "2 63811  42.9999 123.0230 0001880 280.2275 328.2363 15.28168881  5883",
    "COMMENT": "Grouped by shell and plane from TLE"
  },
  {
    "OBJECT_NAME": "STARLINK-34101",
    "OBJECT_ID": "25092J",
    "EPOCH": "2025-11-10T18:44:25.894464",
    "MEAN_MOTION": 15.2760348,
    "ECCENTRICITY": 0.0002152,
    "INCLINATION": 43.0013,
    "RA_OF_ASC_NODE": 123.6841,
    "ARG_OF_PERICENTER": 284.6679,
    "MEAN_ANOMALY": 75.3934,
    "EPHEMERIS_TYPE": 0,
    "CLASSIFICATION_TYPE": "U",
    "NORAD_CAT_ID": 63812,
    "ELEMENT_SET_NO": 999,
    "REV_AT_EPOCH": 3037,
    "BSTAR": 0.0015194,
    "MEAN_MOTION_DOT": 0.00041816,
    "MEAN_MOTION_DDOT": 0.0,
    "TLE_LINE1": "1 63812U 25092J   25314.78085526  .00041816  00000+0  15194-2 0  9995",
    "TLE_LINE2": "2 63812  43.0013 123.6841 0002152 284.6679  75.3934 15.27603480 30370",
    "COMMENT": "Grouped by shell and plane from TLE"
  },
  {
    "OBJECT_NAME": "STARLINK-34057",
    "OBJECT_ID": "25092L",
    "EPOCH": "2025-11-11T04:20:27.894624",
    "MEAN_MOTION": 15.27616691,
    "ECCENTRICITY": 0.0001637,
    "INCLINATION": 43.0026,
    "RA_OF_ASC_NODE": 121.5273,
    "ARG_OF_PERICENTER": 261.3418,
    "MEAN_ANOMALY": 98.7249,
    "EPHEMERIS_TYPE": 0,
    "CLASSIFICATION_TYPE": "U",
    "NORAD_CAT_ID": 63814,
    "ELEMENT_SET_NO": 999,
    "REV_AT_EPOCH": 3049,
    "BSTAR": 0.00042127,
    "MEAN_MOTION_DOT": 0.00011361,
    "MEAN_MOTION_DDOT": 0.0,
    "TLE_LINE1": "1 63814U 25092L   25315.18087841  .00011361  00000+0  42127-3 0  9993",
    "TLE_LINE2": "2 63814  43.0026 121.5273 0001637 261.3418  98.7249 15.27616691 30491",
    "COMMENT": "Grouped by shell and plane from TLE"
  },
  {
    "OBJECT_NAME": "STARLINK-34060",
    "OBJECT_ID": "25092M",
    "EPOCH": "2025-11-10T20:31:32.474208",
    "MEAN_MOTION": 15.27601682,
    "ECCENTRICITY": 0.0001258,
    "INCLINATION": 43.0015,
    "RA_OF_ASC_NODE": 123.3861,
    "ARG_OF_PERICENTER": 259.4904,
    "MEAN_ANOMALY": 100.5806,
    "EPHEMERIS_TYPE": 0,
    "CLASSIFICATION_TYPE": "U",
    "NORAD_CAT_ID": 63815,
    "ELEMENT_SET_NO": 999,
    "REV_AT_EPOCH": 3038,
    "BSTAR": 0.00072561,
    "MEAN_MOTION_DOT": 0.00019772,
    "MEAN_MOTION_DDOT": 0.0,
    "TLE_LINE1": "1 63815U 25092M   25314.85523697  .00019772  00000+0  72561-3 0  9990",
    "TLE_LINE2": "2 63815  43.0015 123.3861 0001258 259.4904 100.5806 15.27601682 30383",
    "COMMENT": "Grouped by shell and plane from TLE"
  },
  {
    "OBJECT_NAME": "STARLINK-34048",
    "OBJECT_ID": "25092N",
    "EPOCH": "2025-11-11T03:52:55.435008",
    "MEAN_MOTION": 15.27591386,
    "ECCENTRICITY": 3.94e-05,
    "INCLINATION": 42.9983,
    "RA_OF_ASC_NODE": 122.248,
    "ARG_OF_PERICENTER": 264.9833,
    "MEAN_ANOMALY": 95.0974,
    "EPHEMERIS_TYPE": 0,
    "CLASSIFICATION_TYPE": "U",
    "NORAD_CAT_ID": 63816,
    "ELEMENT_SET_NO": 999,
    "REV_AT_EPOCH": 3053,
    "BSTAR": 0.0006592200000000001,
    "MEAN_MOTION_DOT": 0.00017929,
    "MEAN_MOTION_DDOT": 0.0,
    "TLE_LINE1": "1 63816U 25092N   25315.16175272  .00017929  00000+0  65922-3 0  9993",
    "TLE_LINE2": "2 63816  42.9983 122.2480 0000394 264.9833  95.0974 15.27591386 30533",
    "COMMENT": "Grouped by shell and plane from TLE"
  },
  {
    "OBJECT_NAME": "STARLINK-33959",
    "OBJECT_ID": "25092P",
    "EPOCH": "2025-11-11T04:05:40.475040",
    "MEAN_MOTION": 15.27641694,
    "ECCENTRICITY": 0.0001404,
    "INCLINATION": 43.0011,
    "RA_OF_ASC_NODE": 121.4512,
    "ARG_OF_PERICENTER": 286.7227,
    "MEAN_ANOMALY": 73.347,
    "EPHEMERIS_TYPE": 0,
    "CLASSIFICATION_TYPE": "U",
    "NORAD_CAT_ID": 63817,
    "ELEMENT_SET_NO": 999,
    "REV_AT_EPOCH": 3054,
    "BSTAR": 0.0013039999999999998,
    "MEAN_MOTION_DOT": 0.00035863,
    "MEAN_MOTION_DDOT": 0.0,
    "TLE_LINE1": "1 63817U 25092P   25315.17060735  .00035863  00000+0  13040-2 0  9992",
    "TLE_LINE2": "2 63817  43.0011 121.4512 0001404 286.7227  73.3470 15.27641694 30546",
    "COMMENT": "Grouped by shell and plane from TLE"
  }
]